#dP2019 10 24  0  0  0.00000000      96 __u+U ITR00 FIT  IAC
## 2076 345600.00000000   900.00000000 58780 0.0000000000000
+  106   C06C07C08C09C10C11C12C13C14C16C19C20C21C22C23C24C25
+        C26C27C28C29C30C32C33C34C35C36C37E01E02E03E04E05E07
+        E08E09E11E12E13E14E15E18E19E21E24E25E26E27E30E31E33
+        E36G01G02G03G04G05G06G07G08G09G10G11G12G13G14G15G16
+        G17G18G19G20G21G22G23G24G25G26G27G28G29G30G31G32R01
+        R02R03R05R07R08R09R11R12R13R14R15R16R17R18R19R20R21
+        R22R23R24R26  0  0  0  0  0  0  0  0  0  0  0  0  0
++         9  9  9  8  9  7  8  8  8  9  8  8  8  8  8  8  8
++         8  7  7  8  8  8  8  7  8  8  8  5  6  6  5  5  5
++         5  5  5  5  5  6  5  5  5  5  5  5  5  5  5  5  5
++         5  3  4  3  9  4  4  4  4  3  4  4  3  4  3  4  3
++         3  4  4  4  4  3  3  4  3  3  4  3  3  4  3  4  6
++         6  6  5  6  5  5  6  6  6  5  5  6  5  5  6  6  5
++         6  5  6  8  0  0  0  0  0  0  0  0  0  0  0  0  0
%c M  cc GPS ccc cccc cccc cccc cccc ccccc ccccc ccccc ccccc
%c cc cc ccc ccc cccc cccc cccc cccc ccccc ccccc ccccc ccccc
%f  0.0000000  0.000000000  0.00000000000  0.000000000000000
%f  0.0000000  0.000000000  0.00000000000  0.000000000000000
%i    0    0    0    0      0      0      0      0         0
%i    0    0    0    0      0      0      0      0         0
/* INFORMATION & ANALYSIS CENTER (IAC)      ULTRA-RAPID DATA
/* S/V CLOCKS ARE ALIGNED TO GNSS TIME                      
/* G:C1WC2W R:C1PC2P E:C1XC5X C:C2IC6I J:C1CC2S             
/* PCV:IGS14_2070 OL/AL:FES2004  NONE     YN ORB:CoN CLK:CoN
*  2019 10 24  2 45  0.00000000
PC06 -18595.037939  37857.482159   4417.544423    348.342708
PC07  -9531.370775  26161.117932 -31360.172745   -215.102883
PC08 -23392.440694  20979.314543  28022.846218    -20.795772
PC09  -8589.259174  39672.548112 -11840.827829     62.989113
PC10   4878.097835  33632.456801 -24521.772842   -298.226264
PC11  20828.645406 -17891.691726   5242.713561     39.219654
PC12  14301.276609   6770.895092  23064.122115    304.473198
PC13  -6922.303817  23968.394000  34002.166800   -826.551872
PC14  11919.863970 -12503.440443 -21905.226110     96.379334
PC16 -15551.232617  39287.589390    591.247495   -898.743739
PC19  -5973.023064  20622.613601  17834.516074    226.412195
PC20 -15857.011072   2783.730842  22803.754478   -206.666892
PC21  16567.127913  17237.240054 -14367.753087    233.477288
PC22   7510.414364  26756.073143   2355.680423   -264.673002
PC23  -8023.370041 -16763.310534  20830.841877   -896.638459
PC24  26410.695767   -961.190567   8999.347050   -879.702749
PC25  12446.026145 -13030.807804  21314.227773   -390.210610
PC26  24787.004352  10183.544081  -7841.336774    434.266803
PC27 -14499.544688  -7390.243339 -22682.626242    212.360057
PC28   1652.392726 -20833.294862 -18495.808403    203.595013
PC29 -15882.488815  22663.845301   3560.724918    136.288393
PC30 -21696.412770  10960.826241 -13716.812373    212.865922
PC32 -16711.400753 -17127.243540  14369.715667   -888.008034
PC33   5922.020170 -20635.522398 -17839.513557   -497.470526
PC34  21760.672798 -11128.902353  13451.959191   -177.827170
PC35  -1001.160411  20957.717951  18414.509869   -476.878444
PC36 -12914.836989  12638.767897 -21234.651018 999999.999999
PC37 -24218.659191 -11052.482830   8380.321729   -650.155676
PE01 -19341.148154   4238.561674 -21994.947953   -716.951142
PE02  19294.042866  -4308.738049  22040.579426     87.140826
PE03  15670.230724 -15042.893656 -20120.940007   -225.188617
PE04  -6056.404927  28544.717108   4959.049760   -391.489330
PE05  16194.039201   7431.710468 -23640.163565   -437.430284
PE07  -7243.776152 -25432.381890  13314.333989   -288.353987
PE08   5715.060806 -28647.950906  -4831.284899   6273.337792
PE09   7392.861974  25316.153221 -13422.468492   6275.560441
PE11   8321.986165  14114.628472  24645.866488   5540.148717
PE12 -13170.979511  19499.853596  17962.793056   6134.939928
PE13  -8179.933757 -14093.249434 -24705.685210    394.535542
PE14   3568.107506  19032.173380  14236.086912   -767.992658
PE15  12807.987767 -19512.905317 -18201.569489    890.424617
PE18 -12161.084043 -18522.829845 -23526.964729   -862.559856
PE19 -16068.609824  12907.509167  21243.802003     -3.264659
PE21 -25982.893048 -11948.530443  -7639.643217   -561.957211
PE24  17295.196042  21296.826028 -11134.488197   5804.221814
PE25  25979.850748  11989.885698   7585.646647   1638.128542
PE26 -24542.140637   -549.507153 -16525.618736   3959.078111
PE27 -17329.525137 -21199.309757  11256.853407    360.594873
PE30   1568.552358 -18011.222227  23436.018848   4442.511356
PE31  -1450.287537  17969.040214 -23460.914134   -469.933786
PE33 -26315.710885  13507.880457   1029.614606   -471.409576
PE36  24420.164520    394.742611  16733.106340    645.845015
PG01  -7068.105010 -13919.837496 -21732.705690   -173.147764
PG02 -15577.879286  14678.289137  16264.505757   -332.218681
PG03 -12761.715969 -22792.441476  -5123.807815    -26.446288
PG04      0.000000      0.000000      0.000000 999999.999999
PG05  -3536.708617  17653.468702  19323.949758     -2.649129
PG06 -25451.845844   6256.292770   4434.755161   -100.628394
PG07 -22058.737915  -7233.026846  13611.341497   -133.593781
PG08   4243.647755 -24870.909858  -7902.668421    -10.956439
PG09 -11432.521068 -11501.577006  20981.798946    -64.820862
PG10  19149.038500   4708.857971 -17833.962910   -106.372070
PG11  -3919.303731 -16725.713896 -20820.516738   -469.130834
PG12   7825.141924  23684.240727  -9570.241438    190.912238
PG13 -12825.761500  23205.917948   -739.082149    -37.085090
PG14  17404.725919 -16048.870038 -11528.480190    -54.464513
PG15   -855.221362  24942.400600  -8783.639252   -277.729667
PG16   6660.778979 -15158.751360  20466.495163    -86.216358
PG17 -17152.380097   6972.262279 -18590.689845    149.795321
PG18   2422.538318 -15929.203110 -21607.977311     95.223181
PG19 -18221.831070  13003.594165 -14607.049772   -249.551078
PG20  21786.159383  12004.306052  -9674.012694    527.281283
PG21  23958.540132   3752.487201  11381.749996    -97.470996
PG22  -8022.639044 -22342.663498 -11792.834938   -766.397413
PG23  -4678.256531 -20442.781557  16413.092682   -159.701574
PG24   5010.907831  15091.195077 -21461.385629     -3.917043
PG25  17764.314710  19580.396943   3516.107303    -16.048812
PG26  13875.201050  -7257.262083  21452.160028     68.375178
PG27  12319.872902 -23041.495916   3622.365312    -97.317460
PG28 -17878.141539  -5715.249854 -18140.986864    757.926068
PG29   8770.935356  13565.626429  21046.154852     63.141985
PG30 -26486.929668    -28.863621   3132.704808    -68.230161
PG31  25060.270932  -6970.007683   6442.265945      1.606982
PG32  17283.627213  -7483.343790 -18615.690675    101.638590
PR01  -5903.762109 -24503.095607   3969.582798     51.623382
PR02 -11257.195974  -9928.944952  20639.664862    394.330473
PR03  -9217.003485   9327.135302  21921.884713      3.635518
PR05   6543.681619  23772.611730  -6577.718508     38.075743
PR07   9047.935861  -9803.665179 -21705.062818    -28.442692
PR08   1848.261210 -23054.229241 -10700.243289     14.873478
PR09  24020.611758   7451.916367   4057.019856     97.333404
PR11   2218.155666 -11041.833466  22910.658770     22.323929
PR12 -14574.734144 -13815.602538  15749.820227     72.930519
PR13 -23974.368438  -8626.997889  -1287.080244    -30.050045
PR14 -18916.619777   1203.840669 -17059.087744     44.309198
PR15  -3135.880021  10493.495223 -23009.327298    104.486204
PR16  15128.907727  13671.828499 -15417.329749      1.847674
PR17 -21092.541088  12991.787846  -5969.979232    270.703737
PR18 -14748.461182  17722.323863  10975.924265     11.996782
PR19   -947.225801  12927.491302  21966.496624    -60.392234
PR20  15539.132610   -255.910853  20222.728970   -394.194399
PR21  21084.768413 -13411.009667   5218.139232    -80.678338
PR22  12651.802636 -17423.350575 -13580.106132   -181.472451
PR23  -4784.790844  -9474.569336 -23202.135915    262.228002
PR24 -16844.995994   2168.414230 -19057.849128   -186.031977
PR26  13190.292660   2156.758331  21744.897656      3.271126
EOF
